{"spkid": "20162567", "covariance": {"epoch": "2458033.5", "labels": ["e", "q", "tp", "node", "peri", "i"], "data": [["2.54872628270465E-15", "-3.145145932583506E-15", "3.148709443740651E-13", "1.258775661515604E-13", "1.648331881238564E-13", "2.767159149134594E-14"], ["-3.145145932583506E-15", "3.882953769170715E-15", "-3.792442427125568E-13", "-1.525205304669899E-13", "-2.041248077629963E-13", "-3.449592945257437E-14"], ["3.148709443740651E-13", "-3.792442427125568E-13", "4.007820470449971E-10", "-4.361965123009752E-11", "2.713285534287075E-10", "-9.109376010339707E-12"], ["1.258775661515604E-13", "-1.525205304669899E-13", "-4.361965123009752E-11", "3.059585852833007E-10", "-3.091252397999385E-10", "3.935699187228319E-12"], ["1.648331881238564E-13", "-2.041248077629963E-13", "2.713285534287075E-10", "-3.091252397999385E-10", "4.752340336111234E-10", "-3.292123940871659E-13"], ["2.767159149134594E-14", "-3.449592945257437E-14", "-9.109376010339707E-12", "3.935699187228319E-12", "-3.292123940871659E-13", "8.592645699181649E-11"]], "elements": [{"sigma": 5.04849114360385e-08, "name": "e", "units": null, "value": ".2501044696925465", "title": "eccentricity", "label": "e"}, {"label": "q", "name": "q", "sigma": 6.23133514519217e-08, "value": ".9355504594620029", "title": "perihelion distance", "units": "au"}, {"label": "tp", "sigma": 2.00195416292431e-05, "name": "tp", "title": "time of perihelion passage", "value": "2458038.498593670065", "units": "TDB"}, {"name": "om", "sigma": 1.74916718835937e-05, "units": "deg", "title": "longitude of the ascending node", "value": "333.3315077123929", "label": "node"}, {"name": "w", "sigma": 2.17998631557889e-05, "units": "deg", "value": "133.2317063532348", "title": "argument of perihelion", "label": "peri"}, {"label": "i", "title": "inclination", "value": "13.74616384897544", "units": "deg", "name": "i", "sigma": 9.26965247416625e-06}]}, "elements": [{"label": "e", "sigma": "5.0517E-8", "name": "e", "title": "eccentricity", "value": ".2501348182496948", "units": null}, {"title": "semi-major axis", "value": "1.247401098179379", "units": "au", "name": "a", "sigma": "1.8027E-9", "label": "a"}, {"units": "au", "title": "perihelion distance", "value": ".9353826512018102", "name": "q", "sigma": "6.2405E-8", "label": "q"}, {"units": "deg", "value": "13.74721834733223", "title": "inclination; angle with respect to x-y ecliptic plane", "sigma": "9.2715E-6", "name": "i", "label": "i"}, {"label": "node", "name": "om", "sigma": "1.7489E-5", "units": "deg", "value": "333.2801636674076", "title": "longitude of the ascending node"}, {"label": "peri", "name": "w", "sigma": "2.179E-5", "title": "argument of perihelion", "value": "133.3112003509074", "units": "deg"}, {"name": "ma", "sigma": "1.6986E-5", "title": "mean anomaly", "value": "76.67824854045047", "units": "deg", "label": "M"}, {"label": "tp", "units": "TDB", "value": "2461092.112975616276", "title": "time of perihelion passage", "sigma": "2.3863E-5", "name": "tp"}, {"label": "period", "title": "sidereal orbital period", "value": "508.8708926046571", "units": "d", "name": "per", "sigma": "1.1031E-6"}, {"label": "n", "value": ".7074485989114823", "title": "mean motion", "units": "deg/d", "sigma": "1.5336E-9", "name": "n"}, {"label": "Q", "units": "au", "value": "1.559419545156947", "title": "aphelion distance", "name": "ad", "sigma": "2.2536E-9"}], "epoch": "2461200.5"}